{
    "links": {
        "self": "http://www.neowsapp.com/rest/v1/neo/3840118?api_key=iIulBulltgU6a56xZRHN4H3l9WmuAYTsLGpBGhQ2"
    },
    "id": "3840118",
    "neo_reference_id": "3840118",
    "name": "(2019 FB)",
    "designation": "2019 FB",
    "nasa_jpl_url": "http://ssd.jpl.nasa.gov/sbdb.cgi?sstr=3840118",
    "absolute_magnitude_h": 25.9,
    "estimated_diameter": {
        "kilometers": {
            "estimated_diameter_min": 0.0175612318,
            "estimated_diameter_max": 0.0392681082
        },
        "meters": {
            "estimated_diameter_min": 17.561231848,
            "estimated_diameter_max": 39.2681081809
        },
        "miles": {
            "estimated_diameter_min": 0.0109120402,
            "estimated_diameter_max": 0.0244000636
        },
        "feet": {
            "estimated_diameter_min": 57.6155918963,
            "estimated_diameter_max": 128.8323800441
        }
    },
    "is_potentially_hazardous_asteroid": false,
    "close_approach_data": [
        {
            "close_approach_date": "2019-03-14",
            "close_approach_date_full": "2019-Mar-14 19:24",
            "epoch_date_close_approach": 1552591440000,
            "relative_velocity": {
                "kilometers_per_second": "8.118434102",
                "kilometers_per_hour": "29226.3627672207",
                "miles_per_hour": "18160.1252427767"
            },
            "miss_distance": {
                "astronomical": "0.0067510993",
                "lunar": "2.6261776277",
                "kilometers": "1009950.075438491",
                "miles": "627553.8768175358"
            },
            "orbiting_body": "Moon"
        },
        {
            "close_approach_date": "2019-03-15",
            "close_approach_date_full": "2019-Mar-15 04:05",
            "epoch_date_close_approach": 1552622700000,
            "relative_velocity": {
                "kilometers_per_second": "8.7832743705",
                "kilometers_per_hour": "31619.7877336223",
                "miles_per_hour": "19647.306439261"
            },
            "miss_distance": {
                "astronomical": "0.0076383055",
                "lunar": "2.9713008395",
                "kilometers": "1142674.233209285",
                "miles": "710024.844226733"
            },
            "orbiting_body": "Earth"
        }
    ],
    "orbital_data": {
        "orbit_id": "4",
        "orbit_determination_date": "2019-07-27 14:01:48",
        "first_observation_date": "2019-03-16",
        "last_observation_date": "2019-03-28",
        "data_arc_in_days": 12,
        "observations_used": 53,
        "orbit_uncertainty": "7",
        "minimum_orbit_intersection": ".00646293",
        "jupiter_tisserand_invariant": "3.343",
        "epoch_osculation": "2459000.5",
        "eccentricity": ".5797079239063814",
        "semi_major_axis": "2.301861301522596",
        "inclination": "3.169640816247291",
        "ascending_node_longitude": "166.6816621557304",
        "orbital_period": "1275.607765482774",
        "perihelion_distance": ".9674540652964911",
        "perihelion_argument": "345.1870344320807",
        "aphelion_distance": "3.636268537748702",
        "perihelion_time": "2458540.745018005564",
        "mean_anomaly": "129.7513216810471",
        "mean_motion": ".2822184136388919",
        "equinox": "J2000",
        "orbit_class": {
            "orbit_class_type": "APO",
            "orbit_class_description": "Near-Earth asteroid orbits which cross the Earth’s orbit similar to that of 1862 Apollo",
            "orbit_class_range": "a (semi-major axis) > 1.0 AU; q (perihelion) < 1.017 AU"
        }
    },
    "is_sentry_object": false
}